{"type": "FeatureCollection", "features": [{"type": "Feature", "id": 130, "geometry": {"type": "Polygon", "coordinates": [[[-81.36764335382951, 48.588535682894474], [-81.37841295740672, 48.588511882288046], [-81.37844125650113, 48.581318281221044], [-81.37846025598417, 48.57720258061032], [-81.3834740576507, 48.57720318032969], [-81.38938525961541, 48.57720367999877], [-81.38938525961811, 48.57722488000196], [-81.40033286325638, 48.57722497938876], [-81.40036486193635, 48.566762277836986], [-81.38943115830345, 48.56676457844958], [-81.38941745829888, 48.56676457845034], [-81.38941335782134, 48.563017677895296], [-81.38324855577665, 48.56304767824485], [-81.38330065533968, 48.55947157771187], [-81.38940945736577, 48.55944197736555], [-81.38940685705238, 48.55698187700103], [-81.38794705663518, 48.55751607716194], [-81.38480705577538, 48.55896087755185], [-81.37893695381385, 48.558874577867584], [-81.37887915379481, 48.55887617787102], [-81.37882225377673, 48.558882777875176], [-81.3787670537599, 48.55889427787999], [-81.37871465374451, 48.55891037788531], [-81.37866575373084, 48.5589308778911], [-81.37862135371924, 48.558955477897214], [-81.37858205370978, 48.5589835779036], [-81.37854865370265, 48.55901487791011], [-81.37852165369793, 48.55904887791663], [-81.37850155369584, 48.55908477792307], [-81.37848845369635, 48.5591228779295], [-81.37848305369945, 48.55916167793551], [-81.37835815406395, 48.56235857841642], [-81.37808555397278, 48.56235397843097], [-81.37821055360831, 48.559156977950096], [-81.37821605360405, 48.55910907794265], [-81.37822885360232, 48.55906177793492], [-81.37824875360306, 48.55901557792697], [-81.3782755536063, 48.55897097791884], [-81.37830895361199, 48.558928377910675], [-81.3783486536201, 48.55888827790254], [-81.37839425363047, 48.55885097789442], [-81.37844535364314, 48.55881697788656], [-81.37850125365786, 48.558786577878905], [-81.37855735367334, 48.55876167787205], [-81.37861665369039, 48.5587404778656], [-81.37867865370873, 48.55872297785951], [-81.37874285372834, 48.55870947785396], [-81.37880875374907, 48.55869997784884], [-81.37887565377062, 48.558694677844315], [-81.3789430537929, 48.55869357784041], [-81.3847245557248, 48.55877867752945], [-81.38780315656786, 48.55736207714719], [-81.3894066570261, 48.556775276970455], [-81.38940525645981, 48.55232017631004], [-81.38940175645864, 48.55232017631024], [-81.37849565283368, 48.55230957691895], [-81.36995684999525, 48.55230047739525], [-81.36864374955873, 48.55229907746852], [-81.36865674958462, 48.55246887749294], [-81.3686777496131, 48.552638277516884], [-81.36870684964421, 48.55280717754031], [-81.36874394967788, 48.55297547756319], [-81.36878904971412, 48.55314277758545], [-81.37069425116918, 48.55961877843905], [-81.37099025139547, 48.56062587857177], [-81.37126335160413, 48.56155467869417], [-81.37136785168403, 48.561910278741074], [-81.3717356519651, 48.563161278905895], [-81.37184335204911, 48.56354097895615], [-81.37196525214424, 48.563970879013084], [-81.37223455235429, 48.5649199791387], [-81.37229705240301, 48.56514037916787], [-81.37189105227513, 48.56519597919881], [-81.37182855222642, 48.56497557916965], [-81.37131515182587, 48.563165378930044], [-81.37077265140273, 48.561252878676896], [-81.37022875122925, 48.56130997871578], [-81.37014325116253, 48.56100837867585], [-81.370687151336, 48.56095127863697], [-81.37027205102832, 48.559614378462], [-81.36760235013992, 48.55960467860994], [-81.36760195016126, 48.55977407863508], [-81.36759525059426, 48.563201879143584], [-81.36710535043207, 48.56320667917169], [-81.35668684696292, 48.56315547974678], [-81.35626334682188, 48.56315337977018], [-81.35068354497147, 48.56318668008711], [-81.35060704540017, 48.56676448062178], [-81.34575324378666, 48.56676358089296], [-81.3457433441834, 48.56991558136075], [-81.33481964055811, 48.56996418197857], [-81.33480594106625, 48.57400378257812], [-81.33479554145613, 48.57710268303798], [-81.34572064508905, 48.577107982427975], [-81.34570744561448, 48.58127958304685], [-81.35670964927404, 48.58129358243357], [-81.35671875019607, 48.5885241835041], [-81.36764335382513, 48.58850108288937], [-81.36764335382951, 48.588535682894474]]]}, "properties": {"OBJECTID": 130}}, {"type": "Feature", "id": 131, "geometry": {"type": "Polygon", "coordinates": [[[-83.34578820682036, 47.83412505730501], [-83.34965690771774, 47.83135645666485], [-83.35014060782842, 47.83099895658309], [-83.35577950909476, 47.82664205560188], [-83.35594250912787, 47.82648915556952], [-83.35595000912953, 47.82648295556812], [-83.35595080912964, 47.826482155568], [-83.35897270981121, 47.82417045504559], [-83.35897710981241, 47.82416835504498], [-83.35898000981292, 47.82416535504438], [-83.35987541002775, 47.82358005490445], [-83.35987741002828, 47.82357915490423], [-83.35988681003059, 47.82357335490281], [-83.36078751026228, 47.82310495478002], [-83.36079681026479, 47.8231011547789], [-83.36080221026613, 47.82309825477818], [-83.36169111050967, 47.82275135467424], [-83.3619246105738, 47.82266115464707], [-83.3714305131873, 47.81902505354667], [-83.37143401284567, 47.81637325315032], [-83.36401020952667, 47.809320752531846], [-83.3598062084291, 47.81138055308599], [-83.35973470842102, 47.81149745310769], [-83.35963240840091, 47.81159855312878], [-83.35950340837218, 47.811700153151506], [-83.35937360834087, 47.81178385317162], [-83.3592956083216, 47.81183045318316], [-83.3591775082894, 47.81187785319714], [-83.35899100823059, 47.811890653210035], [-83.35880380816918, 47.81188555322022], [-83.35865820812583, 47.81191555323323], [-83.35846210807438, 47.81200955325876], [-83.35797730794393, 47.81221745331825], [-83.35770190786931, 47.81233105335132], [-83.35740390779904, 47.8125351533993], [-83.35734240779435, 47.81265345342058], [-83.35729150778492, 47.81270845343182], [-83.35718590775446, 47.81273765344234], [-83.35710590772868, 47.81273925344729], [-83.35703870770591, 47.81273165345007], [-83.3569332076755, 47.81276075346063], [-83.35678960763859, 47.81283575348022], [-83.35664690760427, 47.81292865350248], [-83.35651710757294, 47.813012253522565], [-83.35636060753305, 47.813096453544325], [-83.35621660749489, 47.81316245356263], [-83.356111907467, 47.813209553575824], [-83.35607230745545, 47.81321935357959], [-83.3560604074511, 47.8132156535797], [-83.35194900637752, 47.81522955412154], [-83.3520267064165, 47.8153360541329], [-83.35212180645169, 47.815370054132394], [-83.3522439064968, 47.8154125541316], [-83.35231430652992, 47.81549205413938], [-83.35229130653299, 47.81557355415291], [-83.3523087065502, 47.81566315416524], [-83.35232940657778, 47.8158247541882], [-83.352320906589, 47.815932854204824], [-83.35224850658777, 47.81610535423487], [-83.35214990657929, 47.816287254267785], [-83.35200910655142, 47.81642515429668], [-83.351815806509, 47.81658205433142], [-83.35160840645969, 47.81672135436438], [-83.35142640641507, 47.81683305439173], [-83.35121850636443, 47.816963254423364], [-83.35104950632288, 47.81706575444862], [-83.35091840628769, 47.817122354464736], [-83.35066730621385, 47.8171815544883], [-83.35040240613445, 47.817231954511385], [-83.3501362060511, 47.81725535453045], [-83.34984300595788, 47.81727035454988], [-83.34957440586685, 47.81723985456103], [-83.34923910575428, 47.81721075457633], [-83.34888840563099, 47.817136954585855], [-83.34853690550511, 47.817045154592726], [-83.34835660543935, 47.81698895459494], [-83.33999630325144, 47.8210493556914], [-83.33120200038827, 47.820973956195246], [-83.33115080072005, 47.82367195660135], [-83.33457470183231, 47.82368185640224], [-83.34578820682036, 47.83412505730501]]]}, "properties": {"OBJECTID": 131}}, {"type": "Feature", "id": 229, "geometry": {"type": "Polygon", "coordinates": [[[-84.79576629179807, 47.960995889075065], [-84.79361839099836, 47.9601886890886], [-84.79293589074418, 47.95993208909288], [-84.79290609040808, 47.95753208874286], [-84.79138799016081, 47.959298689095014], [-84.79135429015531, 47.95933798910287], [-84.78387948893764, 47.96803499083651], [-84.78156568807347, 47.96714739084842], [-84.78155588807329, 47.967168990852215], [-84.77939168803836, 47.97202149169621], [-84.77880688803674, 47.973389591932644], [-84.77874938803653, 47.97352409195588], [-84.77883788837481, 47.97579999228394], [-84.7819791895412, 47.97695379226017], [-84.78223588953644, 47.976312792150495], [-84.78227828953439, 47.976197892131026], [-84.78231478953036, 47.97608199211186], [-84.78234528952426, 47.97596539209286], [-84.78236988951622, 47.97584819207417], [-84.78238848950615, 47.9757304920558], [-84.78236548949877, 47.975730592057246], [-84.78236578933664, 47.97453889188262], [-84.7823658892263, 47.97372819176377], [-84.78240678923966, 47.97372989176154], [-84.78240678923436, 47.97369089175583], [-84.78240958921981, 47.97357749173899], [-84.78241808920713, 47.97346429172188], [-84.78243208919625, 47.97335129170447], [-84.78245178918726, 47.973238791686775], [-84.78247698918007, 47.97312669166884], [-84.78252608917595, 47.97298029164437], [-84.78257998917344, 47.972834691619724], [-84.7826386891726, 47.972689891594854], [-84.78270208917338, 47.9725460915699], [-84.78276248917838, 47.972440291550726], [-84.78282768918513, 47.972335891531415], [-84.78289758919358, 47.972232891512], [-84.78365268924674, 47.97084129126174], [-84.78628048977232, 47.96850059075741], [-84.78770489032878, 47.96922679077636], [-84.78922749063331, 47.96787059048415], [-84.7899647907808, 47.96721389034262], [-84.79033339085451, 47.96688549027185], [-84.79052519089284, 47.96671459023503], [-84.79116439114097, 47.96702869024183], [-84.79159249130821, 47.96724729024757], [-84.79227729144435, 47.966631490115304], [-84.79248019148416, 47.96644489007548], [-84.79248049148427, 47.96644499007551], [-84.79252969149456, 47.96640459006651], [-84.79321289163038, 47.96579028993454], [-84.79321659163115, 47.965786889933845], [-84.79354119169568, 47.96549498987111], [-84.79358299170401, 47.96545738986303], [-84.79390909176884, 47.96516418980007], [-84.79426909184042, 47.96484038973051], [-84.7946377919137, 47.96450888965927], [-84.79500459198661, 47.9641789895884], [-84.79500719198715, 47.964176689587894], [-84.79521719206912, 47.96428338959064], [-84.794854791998, 47.964616089661654], [-84.79448639192475, 47.96494728973281], [-84.79412379185266, 47.96527348980291], [-84.79375589177955, 47.965604289873944], [-84.79338389170555, 47.965938789945845], [-84.79302129163344, 47.96626489001588], [-84.79301459163214, 47.96627089001714], [-84.79265559156077, 47.966593790086534], [-84.79302089170302, 47.96677679009091], [-84.79302729177527, 47.9672922901661], [-84.79336169190528, 47.96745829016988], [-84.79372639197771, 47.96712999009938], [-84.79409179205034, 47.966801090028746], [-84.7944541921223, 47.96647478995869], [-84.79482599219624, 47.966140189886794], [-84.79519359226927, 47.96580928981573], [-84.79555609234129, 47.96548298974567], [-84.79592419241442, 47.96515158967452], [-84.79592589241474, 47.96515008967418], [-84.79628609248641, 47.96482658960461], [-84.79665349255951, 47.964496589533724], [-84.79701579263158, 47.96417108946374], [-84.79738359270475, 47.96384068939275], [-84.79646799234868, 47.963385289382245], [-84.79640459232388, 47.96335298938137], [-84.79754889255103, 47.96232128915989], [-84.7979947926395, 47.96191908907358], [-84.79908179302915, 47.96221628905041], [-84.80052029356783, 47.962779789044674], [-84.80301789396252, 47.95978568845244], [-84.80294619391965, 47.95963968843547], [-84.798319692245, 47.95825318851626], [-84.79708399199914, 47.95936318875483], [-84.79704719199222, 47.959398988762366], [-84.7970144919868, 47.959436488769825], [-84.79698599198298, 47.959475488777315], [-84.79696189198069, 47.95951578878473], [-84.79687079197461, 47.959686288815284], [-84.7967941919685, 47.95982218883994], [-84.79671049195986, 47.95995628886471], [-84.79662009194882, 47.96008838888966], [-84.79652279193526, 47.96021828891465], [-84.79641889191923, 47.960345788939726], [-84.79630839190075, 47.96047078896481], [-84.79619159187989, 47.96059318898994], [-84.79606849185663, 47.96071278901502], [-84.79576729179824, 47.960994889074854], [-84.79576629179807, 47.960995889075065]]]}, "properties": {"OBJECTID": 229}}, {"type": "Feature", "id": 347, "geometry": {"type": "Polygon", "coordinates": [[[-83.22196523145314, 47.55869002317834], [-83.22200563146616, 47.55868912317584], [-83.22208593149122, 47.55868192317013], [-83.2221653315151, 47.55866752316335], [-83.22224313153754, 47.558646023155596], [-83.22231873155843, 47.558617623146915], [-83.22239143157756, 47.55858262313743], [-83.22246073159472, 47.558541223127136], [-83.22252593160981, 47.55849382311621], [-83.2225867316228, 47.55844072310468], [-83.22264253163345, 47.55838242309267], [-83.22269283164175, 47.5583193230802], [-83.22273723164763, 47.55825192306745], [-83.22277553165102, 47.55818092305454], [-83.22280723165191, 47.55810672304147], [-83.22283213165021, 47.55802992302845], [-83.22285013164611, 47.55795132301556], [-83.22286093163946, 47.55787132300283], [-83.22286453163044, 47.557790722990475], [-83.22286093161905, 47.55771012297853], [-83.22285013160545, 47.557630122967055], [-83.22283213158964, 47.557551422956266], [-83.22280723157192, 47.55747472294612], [-83.22277553155223, 47.55740052293673], [-83.22273723153087, 47.557329422928255], [-83.22269283150794, 47.557262122920655], [-83.22264253148367, 47.55719902291409], [-83.22258673145824, 47.5571407229085], [-83.2225259314318, 47.55708762290401], [-83.2224607314047, 47.557040122900624], [-83.22239143137706, 47.55699872289842], [-83.22231873134908, 47.556963722897315], [-83.22224313132102, 47.556935422897446], [-83.22216533129313, 47.5569139228987], [-83.22208593126561, 47.55689952290113], [-83.22200563123872, 47.55689232290473], [-83.22192493121258, 47.55689232290942], [-83.22184453118747, 47.55689952291513], [-83.2217651311636, 47.55691392292191], [-83.22168733114114, 47.55693542292966], [-83.22161183112023, 47.55696372293831], [-83.22153913110115, 47.556998722947846], [-83.22146983108395, 47.557040122958085], [-83.22140453106881, 47.55708762296904], [-83.2213437310559, 47.55714072298058], [-83.2212880310452, 47.557199022992656], [-83.22123773103691, 47.55726212300505], [-83.22119323103104, 47.557329423017805], [-83.22115503102766, 47.55740052303073], [-83.22112323102677, 47.557474723043796], [-83.2210983310284, 47.55755142305682], [-83.22108043103258, 47.55763012306969], [-83.22106953103916, 47.557710123082444], [-83.22106593104824, 47.5577907230948], [-83.22106953105956, 47.55787132310674], [-83.22108043107323, 47.557951323118196], [-83.22109833108895, 47.55802992312902], [-83.22112323110676, 47.558106723139126], [-83.22115503112643, 47.55818092314855], [-83.2211932311478, 47.55825192315702], [-83.22123773117073, 47.55831932316459], [-83.221288031195, 47.55838242317124], [-83.22134373122044, 47.55844072317678], [-83.2214045312468, 47.55849382318127], [-83.22146983127396, 47.5585412231846], [-83.22153913130165, 47.558582623186865], [-83.22161183132958, 47.558617623187914], [-83.22168733135766, 47.55864602318782], [-83.22176513138555, 47.558667523186564], [-83.22184453141307, 47.558681923184125], [-83.22192493144001, 47.558689123180514], [-83.22196523145314, 47.55869002317834]]]}, "properties": {"OBJECTID": 347}}, {"type": "Feature", "id": 348, "geometry": {"type": "Polygon", "coordinates": [[[-81.20594178602241, 48.47731947539507], [-81.20525148579303, 48.477319675433414], [-81.20525148584994, 48.47777277550088], [-81.20594238607957, 48.477772775462526], [-81.20594178602241, 48.47731947539507]]]}, "properties": {"OBJECTID": 348}}, {"type": "Feature", "id": 352, "geometry": {"type": "Polygon", "coordinates": [[[-84.55194812856303, 48.07279352038715], [-84.55198842857592, 48.0727926203846], [-84.55206882860084, 48.07278532037863], [-84.55214822862446, 48.07277092037167], [-84.5522260286466, 48.07274942036374], [-84.55230152866706, 48.072721120355], [-84.55237422868578, 48.072686120345416], [-84.55244352870247, 48.07264472033513], [-84.55250882871705, 48.072597320324185], [-84.55256962872944, 48.072544220312665], [-84.55262532873945, 48.07248582030071], [-84.55267562874708, 48.072422720288436], [-84.55272012875226, 48.072355420275855], [-84.55275832875486, 48.07228432026309], [-84.55279012875505, 48.07221012025031], [-84.55281502875262, 48.072133420237556], [-84.55283302874771, 48.07205472022496], [-84.55284382874031, 48.0719748202126], [-84.55284742873049, 48.07189412020056], [-84.55284382871835, 48.071813520189], [-84.55283302870403, 48.071733620177966], [-84.5528150286875, 48.071654920167525], [-84.55279012866906, 48.07157812015779], [-84.55275832864866, 48.07150392014884], [-84.55272012862673, 48.07143292014081], [-84.55267562860323, 48.071365520133675], [-84.55262532857843, 48.071302420127495], [-84.55256962855252, 48.07124412012238], [-84.55250882852567, 48.07119102011832], [-84.55244352849822, 48.0711436201154], [-84.55237422847026, 48.07110222011353], [-84.55230152844202, 48.07106722011289], [-84.55222602841383, 48.07103882011332], [-84.55214822838587, 48.071017420114956], [-84.55206882835832, 48.07100302011773], [-84.55198842833141, 48.07099572012157], [-84.5519077283054, 48.07099572012648], [-84.55182742828053, 48.07100302013248], [-84.55174802825688, 48.07101742013942], [-84.55167022823474, 48.071038820147294], [-84.55159462821425, 48.07106722015609], [-84.55152192819554, 48.07110222016562], [-84.55145262817884, 48.07114362017597], [-84.55138742816426, 48.071191020186866], [-84.55132662815193, 48.07124412019835], [-84.55127082814182, 48.07130242021027], [-84.55122052813421, 48.071365520222614], [-84.55117612812909, 48.071432920235175], [-84.55113782812637, 48.0715039202479], [-84.55110612812629, 48.07157812026072], [-84.55108122812868, 48.07165492027349], [-84.55106322813364, 48.071733620286125], [-84.55105242814099, 48.071813520298484], [-84.55104882815084, 48.07189412031049], [-84.55105242816295, 48.07197482032211], [-84.55106322817733, 48.07205472033314], [-84.5510812281938, 48.072133420343526], [-84.55110612821228, 48.07221012035323], [-84.55113782823257, 48.07228432036214], [-84.55117612825461, 48.072355420370236], [-84.55122052827805, 48.07242272037737], [-84.55127082830285, 48.0724858203835], [-84.55132662832882, 48.072544220388664], [-84.55138742835562, 48.07259732039272], [-84.55145262838307, 48.072644720395694], [-84.55152192841106, 48.072686120397506], [-84.55159462843929, 48.07272112039823], [-84.5516702284675, 48.07274942039771], [-84.5517480284955, 48.07277092039612], [-84.55182742852304, 48.07278532039337], [-84.5519077285499, 48.072792620389514], [-84.55194812856303, 48.07279352038715]]]}, "properties": {"OBJECTID": 352}}, {"type": "Feature", "id": 400, "geometry": {"type": "Polygon", "coordinates": [[[-83.40000512658382, 47.850908456628886], [-83.40023712665729, 47.85089475661325], [-83.40046212672503, 47.850854156593954], [-83.40067322678492, 47.8507879565717], [-83.4008640268352, 47.85069805654711], [-83.40102872687423, 47.85058715652086], [-83.40116232690096, 47.85045875649386], [-83.4012607269144, 47.85031665646688], [-83.40132102691439, 47.850165256440754], [-83.40134132690073, 47.85000905641627], [-83.40132102687389, 47.84985285639418], [-83.40126072683465, 47.849701456375136], [-83.40116222678432, 47.84955935635973], [-83.4010286267243, 47.849430956348414], [-83.40086402665658, 47.84932005634149], [-83.40067322658297, 47.849230156339324], [-83.40046212650593, 47.849163956341854], [-83.40023712642767, 47.84912335634897], [-83.40000512635065, 47.849109656360596], [-83.39977312627718, 47.849123356376225], [-83.39954812620944, 47.849163956395536], [-83.39933702614954, 47.84923015641779], [-83.39914622609925, 47.84932005644238], [-83.39898162606028, 47.84943095646864], [-83.39884802603355, 47.84955935649562], [-83.39874952602004, 47.84970145652263], [-83.39868922602008, 47.84985285654874], [-83.39866892603372, 47.850009056573214], [-83.39868922606058, 47.850165256595325], [-83.39874952609979, 47.85031665661437], [-83.3988479261501, 47.85045875662977], [-83.3989815262101, 47.85058715664107], [-83.39914622627788, 47.850698056647985], [-83.39933702635147, 47.85078795665018], [-83.39954812642853, 47.85085415664764], [-83.3997731265068, 47.8508947566405], [-83.40000512658382, 47.850908456628886]]]}, "properties": {"OBJECTID": 400}}]}