{"type": "FeatureCollection", "features": [{"type": "Feature", "id": 3185, "geometry": {"type": "Point", "coordinates": [-83.43317879999995, 47.849994699061604]}, "properties": {"OBJECTID": 3185}}, {"type": "Feature", "id": 4113, "geometry": {"type": "Point", "coordinates": [-82.7329863, 47.55848669906067]}, "properties": {"OBJECTID": 4113}}, {"type": "Feature", "id": 4289, "geometry": {"type": "Point", "coordinates": [-84.52904059999997, 48.14689039906263]}, "properties": {"OBJECTID": 4289}}, {"type": "Feature", "id": 4385, "geometry": {"type": "Point", "coordinates": [-84.53718579999997, 48.33398119906337]}, "properties": {"OBJECTID": 4385}}]}